start=new Date('2022-06-05T00:00:00.000Z').valueOf();
sats=[{"ECCENTRICITY":"0.00019500","INCLINATION":"53.2133","ARG_OF_PERICENTER":"88.1158","MEAN_ELEMENT_THEORY":"SGP4","PERIAPSIS":"496.018","LAUNCH_DATE":"2022-03-19","BSTAR":"-0.00896070000000","DECAY_DATE":null,"EPOCH":"2022-06-04T10:35:29.741280","SEMIMAJOR_AXIS":"6875.494","CENTER_NAME":"EARTH","TLE_LINE1":"1 52112U 22029AA  22155.44131645 -.00206711  00000-0 -89607-2 0  9990","GP_ID":"205353993","REF_FRAME":"TEME","OBJECT_ID":"2022-029AA","APOAPSIS":"498.700","MEAN_ANOMALY":"272.0064","CLASSIFICATION_TYPE":"U","REV_AT_EPOCH":"1331","ELEMENT_SET_NO":"999","MEAN_MOTION_DDOT":"0.0000000000000","PERIOD":"94.562","MEAN_MOTION":"15.22814127","OBJECT_NAME":"STARLINK-3734","EPHEMERIS_TYPE":"0","MEAN_MOTION_DOT":"-0.00206711","NORAD_CAT_ID":"52112","TIME_SYSTEM":"UTC","SITE":"AFETR","RCS_SIZE":"LARGE","COUNTRY_CODE":"US","FILE":"3480894","TLE_LINE2":"2 52112  53.2133 128.7580 0001950  88.1158 272.0064 15.22814127 13319","OBJECT_TYPE":"PAYLOAD","RA_OF_ASC_NODE":"128.7580"},{"PERIOD":"94.522","MEAN_MOTION_DDOT":"0.0000000000000","OBJECT_NAME":"STARLINK-3736","MEAN_MOTION":"15.23459068","ELEMENT_SET_NO":"999","REV_AT_EPOCH":"1332","NORAD_CAT_ID":"52113","TIME_SYSTEM":"UTC","MEAN_MOTION_DOT":"-0.00219717","EPHEMERIS_TYPE":"0","RCS_SIZE":"LARGE","SITE":"AFETR","RA_OF_ASC_NODE":"128.4993","TLE_LINE2":"2 52113  53.2134 128.4993 0002924  38.3428 321.7778 15.23459068 13320","OBJECT_TYPE":"PAYLOAD","FILE":"3480894","COUNTRY_CODE":"US","PERIAPSIS":"493.409","BSTAR":"-0.00935980000000","LAUNCH_DATE":"2022-03-19","ARG_OF_PERICENTER":"38.3428","INCLINATION":"53.2134","ECCENTRICITY":"0.00029240","MEAN_ELEMENT_THEORY":"SGP4","TLE_LINE1":"1 52113U 22029AB  22155.49682003 -.00219717  00000-0 -93598-2 0  9999","EPOCH":"2022-06-04T11:55:25.250592","DECAY_DATE":null,"CENTER_NAME":"EARTH","SEMIMAJOR_AXIS":"6873.553","GP_ID":"205354117","REF_FRAME":"TEME","APOAPSIS":"497.428","CLASSIFICATION_TYPE":"U","MEAN_ANOMALY":"321.7778","OBJECT_ID":"2022-029AB"},{"ELEMENT_SET_NO":"999","REV_AT_EPOCH":"1331","PERIOD":"94.552","OBJECT_NAME":"STARLINK-3737","MEAN_MOTION_DDOT":"0.0000000000000","MEAN_MOTION":"15.22978653","MEAN_MOTION_DOT":"-0.00226485","EPHEMERIS_TYPE":"0","NORAD_CAT_ID":"52114","TIME_SYSTEM":"UTC","SITE":"AFETR","RCS_SIZE":"LARGE","TLE_LINE2":"2 52114  53.2115 128.7713 0001230 112.4034 247.7094 15.22978653 13311","OBJECT_TYPE":"PAYLOAD","COUNTRY_CODE":"US","FILE":"3480894","RA_OF_ASC_NODE":"128.7713","INCLINATION":"53.2115","ARG_OF_PERICENTER":"112.4034","ECCENTRICITY":"0.00012300","MEAN_ELEMENT_THEORY":"SGP4","PERIAPSIS":"496.018","BSTAR":"-0.00979820000000","LAUNCH_DATE":"2022-03-19","EPOCH":"2022-06-04T10:31:44.523264","DECAY_DATE":null,"CENTER_NAME":"EARTH","SEMIMAJOR_AXIS":"6874.999","TLE_LINE1":"1 52114U 22029AC  22155.43870976 -.00226485  00000-0 -97982-2 0  9993","GP_ID":"205354223","REF_FRAME":"TEME","OBJECT_ID":"2022-029AC","APOAPSIS":"497.709","CLASSIFICATION_TYPE":"U","MEAN_ANOMALY":"247.7094"},{"RA_OF_ASC_NODE":"128.8260","COUNTRY_CODE":"US","FILE":"3480894","OBJECT_TYPE":"PAYLOAD","TLE_LINE2":"2 52115  53.2136 128.8260 0001611  62.3375 297.7787 15.24068928 13318","RCS_SIZE":"LARGE","SITE":"AFETR","TIME_SYSTEM":"UTC","NORAD_CAT_ID":"52115","EPHEMERIS_TYPE":"0","MEAN_MOTION_DOT":"-0.00217261","MEAN_MOTION_DDOT":"0.0000000000000","PERIOD":"94.484","MEAN_MOTION":"15.24068928","OBJECT_NAME":"STARLINK-3685","REV_AT_EPOCH":"1331","ELEMENT_SET_NO":"999","MEAN_ANOMALY":"297.7787","CLASSIFICATION_TYPE":"U","APOAPSIS":"494.692","OBJECT_ID":"2022-029AD","REF_FRAME":"TEME","GP_ID":"205354523","TLE_LINE1":"1 52115U 22029AD  22155.42618118 -.00217261  00000-0 -90865-2 0  9996","SEMIMAJOR_AXIS":"6871.720","CENTER_NAME":"EARTH","DECAY_DATE":null,"EPOCH":"2022-06-04T10:13:42.053952","LAUNCH_DATE":"2022-03-19","BSTAR":"-0.00908650000000","PERIAPSIS":"492.478","MEAN_ELEMENT_THEORY":"SGP4","ECCENTRICITY":"0.00016110","INCLINATION":"53.2136","ARG_OF_PERICENTER":"62.3375"},{"COUNTRY_CODE":"US","FILE":"3480894","OBJECT_TYPE":"PAYLOAD","TLE_LINE2":"2 52116  53.2119 128.7930 0001582  60.8048 299.3108 15.23368851 13312","RA_OF_ASC_NODE":"128.7930","SITE":"AFETR","RCS_SIZE":"LARGE","EPHEMERIS_TYPE":"0","MEAN_MOTION_DOT":"-0.00216489","TIME_SYSTEM":"UTC","NORAD_CAT_ID":"52116","REV_AT_EPOCH":"1331","ELEMENT_SET_NO":"999","MEAN_MOTION":"15.23368851","PERIOD":"94.527","MEAN_MOTION_DDOT":"0.0000000000000","OBJECT_NAME":"STARLINK-3735","OBJECT_ID":"2022-029AE","MEAN_ANOMALY":"299.3108","CLASSIFICATION_TYPE":"U","APOAPSIS":"496.777","REF_FRAME":"TEME","GP_ID":"205354329","SEMIMAJOR_AXIS":"6873.825","CENTER_NAME":"EARTH","DECAY_DATE":null,"EPOCH":"2022-06-04T10:24:29.272032","TLE_LINE1":"1 52116U 22029AE  22155.43367213 -.00216489  00000-0 -92443-2 0  9990","MEAN_ELEMENT_THEORY":"SGP4","ECCENTRICITY":"0.00015820","INCLINATION":"53.2119","ARG_OF_PERICENTER":"60.8048","LAUNCH_DATE":"2022-03-19","BSTAR":"-0.00924430000000","PERIAPSIS":"494.602"},{"APOAPSIS":"493.645","MEAN_ANOMALY":"305.5002","CLASSIFICATION_TYPE":"U","OBJECT_ID":"2022-029AF","GP_ID":"205353780","REF_FRAME":"TEME","TLE_LINE1":"1 52117U 22029AF  22155.42126512 -.00234065  00000-0 -97035-2 0  9997","DECAY_DATE":null,"EPOCH":"2022-06-04T10:06:37.306368","SEMIMAJOR_AXIS":"6870.599","CENTER_NAME":"EARTH","PERIAPSIS":"491.283","LAUNCH_DATE":"2022-03-19","BSTAR":"-0.00970350000000","ECCENTRICITY":"0.00017190","ARG_OF_PERICENTER":"54.6157","INCLINATION":"53.2147","MEAN_ELEMENT_THEORY":"SGP4","RA_OF_ASC_NODE":"128.8540","FILE":"3480894","COUNTRY_CODE":"US","TLE_LINE2":"2 52117  53.2147 128.8540 0001719  54.6157 305.5002 15.24441892 13328","OBJECT_TYPE":"PAYLOAD","RCS_SIZE":"LARGE","SITE":"AFETR","NORAD_CAT_ID":"52117","TIME_SYSTEM":"UTC","EPHEMERIS_TYPE":"0","MEAN_MOTION_DOT":"-0.00234065","PERIOD":"94.461","MEAN_MOTION":"15.24441892","MEAN_MOTION_DDOT":"0.0000000000000","OBJECT_NAME":"STARLINK-3738","REV_AT_EPOCH":"1332","ELEMENT_SET_NO":"999"},{"SITE":"AFETR","RCS_SIZE":"LARGE","COUNTRY_CODE":"US","FILE":"3481010","OBJECT_TYPE":"PAYLOAD","TLE_LINE2":"2 52118  53.2153 128.2150 0002911  43.9612 316.1618 15.23624150 13330","RA_OF_ASC_NODE":"128.2150","REV_AT_EPOCH":"1333","ELEMENT_SET_NO":"999","PERIOD":"94.511","OBJECT_NAME":"STARLINK-3743","MEAN_MOTION_DDOT":"0.0000000000000","MEAN_MOTION":"15.23624150","EPHEMERIS_TYPE":"0","MEAN_MOTION_DOT":"-0.00213899","NORAD_CAT_ID":"52118","TIME_SYSTEM":"UTC","GP_ID":"205356479","REF_FRAME":"TEME","OBJECT_ID":"2022-029AG","APOAPSIS":"496.923","MEAN_ANOMALY":"316.1618","CLASSIFICATION_TYPE":"U","ECCENTRICITY":"0.00029110","INCLINATION":"53.2153","ARG_OF_PERICENTER":"43.9612","MEAN_ELEMENT_THEORY":"SGP4","PERIAPSIS":"492.921","LAUNCH_DATE":"2022-03-19","BSTAR":"-0.00905980000000","DECAY_DATE":null,"EPOCH":"2022-06-04T13:26:21.012288","SEMIMAJOR_AXIS":"6873.057","CENTER_NAME":"EARTH","TLE_LINE1":"1 52118U 22029AG  22155.55996542 -.00213899  00000-0 -90598-2 0  9999"},{"GP_ID":"205354436","REF_FRAME":"TEME","APOAPSIS":"492.616","CLASSIFICATION_TYPE":"U","MEAN_ANOMALY":"344.7588","OBJECT_ID":"2022-029AH","PERIAPSIS":"489.676","BSTAR":"-0.00909910000000","LAUNCH_DATE":"2022-03-19","INCLINATION":"53.2157","ARG_OF_PERICENTER":"15.3476","ECCENTRICITY":"0.00021400","MEAN_ELEMENT_THEORY":"SGP4","TLE_LINE1":"1 52119U 22029AH  22155.41644472 -.00222759  00000-0 -90991-2 0  9999","EPOCH":"2022-06-04T09:59:40.823808","DECAY_DATE":null,"CENTER_NAME":"EARTH","SEMIMAJOR_AXIS":"6869.281","RCS_SIZE":"LARGE","SITE":"AFETR","RA_OF_ASC_NODE":"128.8762","OBJECT_TYPE":"PAYLOAD","TLE_LINE2":"2 52119  53.2157 128.8762 0002140  15.3476 344.7588 15.24880606 13317","COUNTRY_CODE":"US","FILE":"3480894","PERIOD":"94.434","MEAN_MOTION":"15.24880606","MEAN_MOTION_DDOT":"0.0000000000000","OBJECT_NAME":"STARLINK-3558","ELEMENT_SET_NO":"999","REV_AT_EPOCH":"1331","NORAD_CAT_ID":"52119","TIME_SYSTEM":"UTC","MEAN_MOTION_DOT":"-0.00222759","EPHEMERIS_TYPE":"0"},{"MEAN_MOTION":"15.24103545","PERIOD":"94.482","MEAN_MOTION_DDOT":"0.0000000000000","OBJECT_NAME":"STARLINK-3534","ELEMENT_SET_NO":"999","REV_AT_EPOCH":"1334","NORAD_CAT_ID":"52120","TIME_SYSTEM":"UTC","MEAN_MOTION_DOT":"-0.00211773","EPHEMERIS_TYPE":"0","RCS_SIZE":"LARGE","SITE":"AFETR","RA_OF_ASC_NODE":"128.2384","TLE_LINE2":"2 52120  53.2148 128.2384 0000907  92.8962 267.2140 15.24103545 13348","OBJECT_TYPE":"PAYLOAD","FILE":"3481010","COUNTRY_CODE":"US","PERIAPSIS":"492.857","BSTAR":"-0.00884150000000","LAUNCH_DATE":"2022-03-19","ARG_OF_PERICENTER":"92.8962","INCLINATION":"53.2148","ECCENTRICITY":"0.00009070","MEAN_ELEMENT_THEORY":"SGP4","TLE_LINE1":"1 52120U 22029AJ  22155.55496069 -.00211773  00000-0 -88415-2 0  9995","EPOCH":"2022-06-04T13:19:08.603616","DECAY_DATE":null,"CENTER_NAME":"EARTH","SEMIMAJOR_AXIS":"6871.616","GP_ID":"205356468","REF_FRAME":"TEME","APOAPSIS":"494.104","CLASSIFICATION_TYPE":"U","MEAN_ANOMALY":"267.2140","OBJECT_ID":"2022-029AJ"},{"RA_OF_ASC_NODE":"122.2651","COUNTRY_CODE":"US","FILE":"3481223","TLE_LINE2":"2 52121  53.2116 122.2651 0002287  45.3019 314.8178 15.52843805 13413","OBJECT_TYPE":"PAYLOAD","RCS_SIZE":"LARGE","SITE":"AFETR","TIME_SYSTEM":"UTC","NORAD_CAT_ID":"52121","EPHEMERIS_TYPE":"0","MEAN_MOTION_DOT":"-0.00310855","MEAN_MOTION_DDOT":"0.0000000000000","PERIOD":"92.733","MEAN_MOTION":"15.52843805","OBJECT_NAME":"STARLINK-3678","REV_AT_EPOCH":"1341","ELEMENT_SET_NO":"999","MEAN_ANOMALY":"314.8178","CLASSIFICATION_TYPE":"U","APOAPSIS":"409.982","OBJECT_ID":"2022-029AK","REF_FRAME":"TEME","GP_ID":"205361637","TLE_LINE1":"1 52121U 22029AK  22155.55214150 -.00310855  00000-0 -51153-2 0  9995","SEMIMAJOR_AXIS":"6786.565","CENTER_NAME":"EARTH","DECAY_DATE":null,"EPOCH":"2022-06-04T13:15:05.025600","LAUNCH_DATE":"2022-03-19","BSTAR":"-0.00511530000000","PERIAPSIS":"406.878","MEAN_ELEMENT_THEORY":"SGP4","ECCENTRICITY":"0.00022870","INCLINATION":"53.2116","ARG_OF_PERICENTER":"45.3019"}];
